STARLINK-31447          
1 59302U 24056G   26068.48980564 -.00000466  00000+0 -74071-5 0  9993
2 59302  43.0009 231.8462 0000947 274.9567  85.1176 15.27571238111128
BANDWAGON-4 OBJECT M    
1 66304U 25248M   26068.03503276  .00023645  00000+0  95704-3 0  9995
2 66304  45.4108 294.9904 0012944 207.5285 152.4918 15.24295413 18037
